start=new Date('2022-12-05T00:00:00.000Z').valueOf();
sats=[{"NORAD_CAT_ID":"51750","PERIOD":"95.437","ELEMENT_SET_NO":"999","OBJECT_ID":"2022-016AN","EPHEMERIS_TYPE":"0","DECAY_DATE":null,"TLE_LINE1":"1 51750U 22016AN  22338.50566266  .00000818  00000-0  69547-4 0  9995","OBJECT_NAME":"STARLINK-3505","MEAN_MOTION":"15.08842737","INCLINATION":"53.2172","TIME_SYSTEM":"UTC","APOAPSIS":"541.855","EPOCH":"2022-12-04T12:08:09.253824","GP_ID":"219521179","FILE":"3681207","MEAN_ANOMALY":"324.1336","REV_AT_EPOCH":"4387","ECCENTRICITY":"0.00030620","CLASSIFICATION_TYPE":"U","RCS_SIZE":"LARGE","OBJECT_TYPE":"PAYLOAD","MEAN_MOTION_DDOT":"0.0000000000000","MEAN_ELEMENT_THEORY":"SGP4","LAUNCH_DATE":"2022-02-21","CENTER_NAME":"EARTH","MEAN_MOTION_DOT":"0.00000818","REF_FRAME":"TEME","SEMIMAJOR_AXIS":"6917.872","TLE_LINE2":"2 51750  53.2172 256.5621 0003062  35.9862 324.1336 15.08842737 43870","SITE":"AFETR","PERIAPSIS":"537.619","ARG_OF_PERICENTER":"35.9862","COUNTRY_CODE":"US","BSTAR":"0.00006954700000","RA_OF_ASC_NODE":"256.5621"},{"MEAN_MOTION_DOT":"0.00000706","CENTER_NAME":"EARTH","REF_FRAME":"TEME","SITE":"AFETR","TLE_LINE2":"2 51751  53.2163 255.3263 0002480  35.8970 324.2189 15.08841499 43918","SEMIMAJOR_AXIS":"6917.876","ARG_OF_PERICENTER":"35.8970","PERIAPSIS":"538.025","COUNTRY_CODE":"US","BSTAR":"0.00006244000000","RA_OF_ASC_NODE":"255.3263","CLASSIFICATION_TYPE":"U","RCS_SIZE":"LARGE","ECCENTRICITY":"0.00024800","OBJECT_TYPE":"PAYLOAD","MEAN_ELEMENT_THEORY":"SGP4","MEAN_MOTION_DDOT":"0.0000000000000","LAUNCH_DATE":"2022-02-21","MEAN_MOTION":"15.08841499","APOAPSIS":"541.456","EPOCH":"2022-12-04T18:45:35.489664","INCLINATION":"53.2163","TIME_SYSTEM":"UTC","GP_ID":"219556357","FILE":"3681494","REV_AT_EPOCH":"4391","MEAN_ANOMALY":"324.2189","NORAD_CAT_ID":"51751","ELEMENT_SET_NO":"999","PERIOD":"95.437","OBJECT_ID":"2022-016AP","EPHEMERIS_TYPE":"0","TLE_LINE1":"1 51751U 22016AP  22338.78166076  .00000706  00000-0  62440-4 0  9992","DECAY_DATE":null,"OBJECT_NAME":"STARLINK-3506"},{"BSTAR":"0.00005980200000","RA_OF_ASC_NODE":"255.3888","PERIAPSIS":"538.112","ARG_OF_PERICENTER":"29.9573","COUNTRY_CODE":"US","SEMIMAJOR_AXIS":"6917.898","TLE_LINE2":"2 51752  53.2180 255.3888 0002387  29.9573 330.1555 15.08834193 43916","SITE":"AFETR","CENTER_NAME":"EARTH","MEAN_MOTION_DOT":"0.00000663","REF_FRAME":"TEME","LAUNCH_DATE":"2022-02-21","MEAN_MOTION_DDOT":"0.0000000000000","MEAN_ELEMENT_THEORY":"SGP4","ECCENTRICITY":"0.00023870","CLASSIFICATION_TYPE":"U","RCS_SIZE":"LARGE","OBJECT_TYPE":"PAYLOAD","MEAN_ANOMALY":"330.1555","REV_AT_EPOCH":"4391","GP_ID":"219554112","FILE":"3681494","INCLINATION":"53.2180","TIME_SYSTEM":"UTC","APOAPSIS":"541.414","EPOCH":"2022-12-04T18:24:25.299936","MEAN_MOTION":"15.08834193","DECAY_DATE":null,"TLE_LINE1":"1 51752U 22016AQ  22338.76695949  .00000663  00000-0  59802-4 0  9997","OBJECT_NAME":"STARLINK-3511","EPHEMERIS_TYPE":"0","PERIOD":"95.438","ELEMENT_SET_NO":"999","OBJECT_ID":"2022-016AQ","NORAD_CAT_ID":"51752"},{"EPHEMERIS_TYPE":"0","DECAY_DATE":null,"TLE_LINE1":"1 51753U 22016AR  22338.50934717  .00003230  00000-0  22088-3 0  9997","OBJECT_NAME":"STARLINK-3507","NORAD_CAT_ID":"51753","PERIOD":"95.437","ELEMENT_SET_NO":"999","OBJECT_ID":"2022-016AR","GP_ID":"219522431","FILE":"3681207","MEAN_ANOMALY":"321.9736","REV_AT_EPOCH":"4387","MEAN_MOTION":"15.08849843","INCLINATION":"53.2166","TIME_SYSTEM":"UTC","APOAPSIS":"541.989","EPOCH":"2022-12-04T12:13:27.595488","MEAN_MOTION_DDOT":"0.0000000000000","MEAN_ELEMENT_THEORY":"SGP4","LAUNCH_DATE":"2022-02-21","ECCENTRICITY":"0.00032870","RCS_SIZE":"LARGE","CLASSIFICATION_TYPE":"U","OBJECT_TYPE":"PAYLOAD","PERIAPSIS":"537.441","ARG_OF_PERICENTER":"38.1488","COUNTRY_CODE":"US","BSTAR":"0.00022088000000","RA_OF_ASC_NODE":"256.5474","CENTER_NAME":"EARTH","MEAN_MOTION_DOT":"0.00003230","REF_FRAME":"TEME","SEMIMAJOR_AXIS":"6917.850","SITE":"AFETR","TLE_LINE2":"2 51753  53.2166 256.5474 0003287  38.1488 321.9736 15.08849843 43874"},{"PERIAPSIS":"537.509","ARG_OF_PERICENTER":"32.6283","COUNTRY_CODE":"US","BSTAR":"0.00013886000000","RA_OF_ASC_NODE":"256.6041","CENTER_NAME":"EARTH","MEAN_MOTION_DOT":"0.00001922","REF_FRAME":"TEME","SEMIMAJOR_AXIS":"6917.872","TLE_LINE2":"2 51754  53.2173 256.6041 0003221  32.6283 327.4908 15.08842613 43874","SITE":"AFETR","MEAN_MOTION_DDOT":"0.0000000000000","MEAN_ELEMENT_THEORY":"SGP4","LAUNCH_DATE":"2022-02-21","ECCENTRICITY":"0.00032210","CLASSIFICATION_TYPE":"U","RCS_SIZE":"LARGE","OBJECT_TYPE":"PAYLOAD","GP_ID":"219521680","FILE":"3681207","MEAN_ANOMALY":"327.4908","REV_AT_EPOCH":"4387","MEAN_MOTION":"15.08842613","TIME_SYSTEM":"UTC","INCLINATION":"53.2173","APOAPSIS":"541.966","EPOCH":"2022-12-04T11:53:38.359104","EPHEMERIS_TYPE":"0","DECAY_DATE":null,"TLE_LINE1":"1 51754U 22016AS  22338.49558286  .00001922  00000-0  13886-3 0  9991","OBJECT_NAME":"STARLINK-3457","NORAD_CAT_ID":"51754","PERIOD":"95.437","ELEMENT_SET_NO":"999","OBJECT_ID":"2022-016AS"},{"GP_ID":"219521930","FILE":"3681207","MEAN_ANOMALY":"324.1303","REV_AT_EPOCH":"4387","MEAN_MOTION":"15.08843471","TIME_SYSTEM":"UTC","INCLINATION":"53.2162","APOAPSIS":"541.985","EPOCH":"2022-12-04T11:57:33.608160","EPHEMERIS_TYPE":"0","DECAY_DATE":null,"TLE_LINE1":"1 51755U 22016AT  22338.49830565  .00000804  00000-0  68667-4 0  9991","OBJECT_NAME":"STARLINK-3460","NORAD_CAT_ID":"51755","PERIOD":"95.437","ELEMENT_SET_NO":"999","OBJECT_ID":"2022-016AT","PERIAPSIS":"537.484","ARG_OF_PERICENTER":"35.9908","COUNTRY_CODE":"US","BSTAR":"0.00006866700000","RA_OF_ASC_NODE":"256.5948","CENTER_NAME":"EARTH","MEAN_MOTION_DOT":"0.00000804","REF_FRAME":"TEME","SEMIMAJOR_AXIS":"6917.870","SITE":"AFETR","TLE_LINE2":"2 51755  53.2162 256.5948 0003253  35.9908 324.1303 15.08843471 43879","MEAN_MOTION_DDOT":"0.0000000000000","MEAN_ELEMENT_THEORY":"SGP4","LAUNCH_DATE":"2022-02-21","ECCENTRICITY":"0.00032530","CLASSIFICATION_TYPE":"U","RCS_SIZE":"LARGE","OBJECT_TYPE":"PAYLOAD"},{"OBJECT_TYPE":"PAYLOAD","CLASSIFICATION_TYPE":"U","RCS_SIZE":"LARGE","ECCENTRICITY":"0.00027920","MEAN_ELEMENT_THEORY":"SGP4","MEAN_MOTION_DDOT":"0.0000000000000","LAUNCH_DATE":"2022-02-21","REF_FRAME":"TEME","MEAN_MOTION_DOT":"-0.00001097","CENTER_NAME":"EARTH","SITE":"AFETR","TLE_LINE2":"2 51756  53.2166 256.7320 0002792  34.9520 325.1655 15.08831062 43870","SEMIMAJOR_AXIS":"6917.908","COUNTRY_CODE":"US","ARG_OF_PERICENTER":"34.9520","PERIAPSIS":"537.841","RA_OF_ASC_NODE":"256.7320","BSTAR":"-0.00005078600000","NORAD_CAT_ID":"51756","OBJECT_ID":"2022-016AU","ELEMENT_SET_NO":"999","PERIOD":"95.438","EPHEMERIS_TYPE":"0","OBJECT_NAME":"STARLINK-3513","TLE_LINE1":"1 51756U 22016AU  22338.46887609 -.00001097  00000-0 -50786-4 0  9990","DECAY_DATE":null,"MEAN_MOTION":"15.08831062","EPOCH":"2022-12-04T11:15:10.894176","APOAPSIS":"541.704","TIME_SYSTEM":"UTC","INCLINATION":"53.2166","FILE":"3681207","GP_ID":"219522181","REV_AT_EPOCH":"4387","MEAN_ANOMALY":"325.1655"},{"MEAN_MOTION_DOT":"0.00000542","CENTER_NAME":"EARTH","REF_FRAME":"TEME","TLE_LINE2":"2 51757  53.2182 257.9388 0002939  37.6228 322.4970 15.08838569 43839","SITE":"AFETR","SEMIMAJOR_AXIS":"6917.885","ARG_OF_PERICENTER":"37.6228","PERIAPSIS":"537.717","COUNTRY_CODE":"US","BSTAR":"0.00005217500000","RA_OF_ASC_NODE":"257.9388","RCS_SIZE":"LARGE","CLASSIFICATION_TYPE":"U","ECCENTRICITY":"0.00029390","OBJECT_TYPE":"PAYLOAD","MEAN_MOTION_DDOT":"0.0000000000000","MEAN_ELEMENT_THEORY":"SGP4","LAUNCH_DATE":"2022-02-21","MEAN_MOTION":"15.08838569","EPOCH":"2022-12-04T04:48:19.302624","APOAPSIS":"541.783","INCLINATION":"53.2182","TIME_SYSTEM":"UTC","GP_ID":"219522931","FILE":"3681207","REV_AT_EPOCH":"4383","MEAN_ANOMALY":"322.4970","NORAD_CAT_ID":"51757","ELEMENT_SET_NO":"999","PERIOD":"95.438","OBJECT_ID":"2022-016AV","EPHEMERIS_TYPE":"0","TLE_LINE1":"1 51757U 22016AV  22338.20022341  .00000542  00000-0  52175-4 0  9993","DECAY_DATE":null,"OBJECT_NAME":"STARLINK-3459"},{"SITE":"AFETR","TLE_LINE2":"2 51758  53.2186 255.2693 0002822  29.8480 330.2673 15.08848122 45068","SEMIMAJOR_AXIS":"6917.856","REF_FRAME":"TEME","MEAN_MOTION_DOT":"0.00001341","CENTER_NAME":"EARTH","RA_OF_ASC_NODE":"255.2693","BSTAR":"0.00010234000000","COUNTRY_CODE":"US","ARG_OF_PERICENTER":"29.8480","PERIAPSIS":"537.768","OBJECT_TYPE":"PAYLOAD","CLASSIFICATION_TYPE":"U","RCS_SIZE":"LARGE","ECCENTRICITY":"0.00028220","LAUNCH_DATE":"2022-02-21","MEAN_ELEMENT_THEORY":"SGP4","MEAN_MOTION_DDOT":"0.0000000000000","APOAPSIS":"541.673","EPOCH":"2022-12-04T19:02:52.142784","INCLINATION":"53.2186","TIME_SYSTEM":"UTC","MEAN_MOTION":"15.08848122","REV_AT_EPOCH":"4506","MEAN_ANOMALY":"330.2673","FILE":"3681494","GP_ID":"219556869","OBJECT_ID":"2022-016AW","ELEMENT_SET_NO":"999","PERIOD":"95.437","NORAD_CAT_ID":"51758","OBJECT_NAME":"STARLINK-3458","TLE_LINE1":"1 51758U 22016AW  22338.79365906  .00001341  00000-0  10234-3 0  9992","DECAY_DATE":null,"EPHEMERIS_TYPE":"0"},{"OBJECT_TYPE":"PAYLOAD","RCS_SIZE":"LARGE","CLASSIFICATION_TYPE":"U","ECCENTRICITY":"0.00024440","LAUNCH_DATE":"2022-02-21","MEAN_MOTION_DDOT":"0.0000000000000","MEAN_ELEMENT_THEORY":"SGP4","TLE_LINE2":"2 51759  53.2167 255.2771 0002444  38.5999 321.5167 15.08844456 43927","SITE":"AFETR","SEMIMAJOR_AXIS":"6917.867","REF_FRAME":"TEME","MEAN_MOTION_DOT":"0.00004693","CENTER_NAME":"EARTH","RA_OF_ASC_NODE":"255.2771","BSTAR":"0.00031275000000","COUNTRY_CODE":"US","ARG_OF_PERICENTER":"38.5999","PERIAPSIS":"538.041","OBJECT_ID":"2022-016AX","ELEMENT_SET_NO":"999","PERIOD":"95.437","NORAD_CAT_ID":"51759","OBJECT_NAME":"STARLINK-3456","TLE_LINE1":"1 51759U 22016AX  22338.79270314  .00004693  00000-0  31275-3 0  9992","DECAY_DATE":null,"EPHEMERIS_TYPE":"0","APOAPSIS":"541.422","EPOCH":"2022-12-04T19:01:29.551296","TIME_SYSTEM":"UTC","INCLINATION":"53.2167","MEAN_MOTION":"15.08844456","REV_AT_EPOCH":"4392","MEAN_ANOMALY":"321.5167","FILE":"3681494","GP_ID":"219556358"}];
